     2.100          NAVIGATION                              RINEX VERSION / TYPE
fic2rin                                 03/21/2016 00:22:57 PGM / RUN BY / DATE
                                                            END OF HEADER
 7 16  3 20 14  0  0.0  .464335083961D-03 -.181898940355D-11  .000000000000D+00
     .900000000000D+02 -.470937500000D+02  .446697178159D-08 -.816329719981D-01
    -.258721411228D-05  .916272064205D-02  .873394310474D-05  .515366439438D+04
     .504000000000D+05  .670552253723D-07  .212967532877D+01  .651925802231D-07
     .966918804415D+00  .211531250000D+03 -.268352761988D+01 -.817962642856D-08
    -.672885171225D-09  .100000000000D+01  .188900000000D+04  .000000000000D+00
     .485000000000D+01  .000000000000D+00 -.111758708954D-07  .900000000000D+02
     .432060000000D+05  .400000000000D+01
 8 16  3 20 14  0  0.0 -.282004475594D-04 -.147792889038D-11  .000000000000D+00
     .290000000000D+02  .280312500000D+02  .479198531971D-08 -.247972593191D+01
     .152550637722D-05  .183562492020D-02  .263191759586D-05  .515366148758D+04
     .504000000000D+05  .111758708954D-07 -.209006763955D+01 -.186264514923D-08
     .962276020304D+00  .327750000000D+03 -.126221544573D+01 -.846999566646D-08
     .241795786051D-09  .100000000000D+01  .188900000000D+04  .000000000000D+00
     .240000000000D+01  .000000000000D+00  .465661287308D-08  .290000000000D+02
     .432060000000D+05  .400000000000D+01
 9 16  3 20 14  0  0.0  .935802236199D-04  .750333128963D-11  .000000000000D+00
     .630000000000D+02  .299687500000D+02  .520878839552D-08  .264840329473D+01
     .173039734364D-05  .652064103633D-03  .439397990704D-05  .515361012650D+04
     .504000000000D+05  .633299350739D-07  .105126295860D+01 -.223517417908D-07
     .955273016830D+00  .291125000000D+03  .200263541451D+01 -.849678249652D-08
     .140720147273D-09  .100000000000D+01  .188900000000D+04  .000000000000D+00
     .240000000000D+01  .000000000000D+00  .139698386192D-08  .630000000000D+02
     .432060000000D+05  .400000000000D+01
10 16  3 20 14  0  0.0  .229910947382D-04 -.898126018001D-11  .000000000000D+00
     .680000000000D+02  .220312500000D+02  .445732852277D-08 -.159709849375D+01
     .104680657387D-05  .127892079763D-02  .111777335405D-04  .515368896675D+04
     .504000000000D+05 -.372529029846D-08  .726384908276D-02  .931322574615D-08
     .960039857856D+00  .163062500000D+03 -.281760315630D+01 -.791568686299D-08
     .361800784741D-09  .100000000000D+01  .188900000000D+04  .000000000000D+00
     .240000000000D+01  .000000000000D+00  .232830643654D-08  .680000000000D+02
     .432060000000D+05  .400000000000D+01
11 16  3 20 14  0  0.0 -.637438148260D-03 -.159161572810D-11  .000000000000D+00
     .180000000000D+02 -.781875000000D+02  .636562229658D-08  .381884992300D-01
    -.418163836002D-05  .162404354196D-01  .427290797234D-05  .515365530396D+04
     .504000000000D+05 -.253319740295D-06 -.140198305011D+01  .372529029846D-07
     .895666558667D+00  .264000000000D+03  .150792244988D+01 -.946182269432D-08
    -.232152527227D-09  .100000000000D+01  .188900000000D+04  .000000000000D+00
     .240000000000D+01  .000000000000D+00 -.121071934700D-07  .180000000000D+02
     .432060000000D+05  .400000000000D+01
12 16  3 20 14  0  0.0  .373158603907D-03  .147792889038D-11  .000000000000D+00
     .870000000000D+02  .640625000000D+02  .367015287660D-08 -.535190535668D+00
     .333599746227D-05  .598833977710D-02  .103656202555D-04  .515376868820D+04
     .504000000000D+05  .558793544769D-07 -.307929017785D+01  .800937414169D-07
     .990649241843D+00  .195250000000D+03  .691166366813D+00 -.770389232661D-08
     .159292349451D-09  .100000000000D+01  .188900000000D+04  .000000000000D+00
     .240000000000D+01  .000000000000D+00 -.121071934700D-07  .870000000000D+02
     .432060000000D+05  .400000000000D+01
13 16  3 20 14  0  0.0 -.489363446832D-05 -.284217094304D-11  .000000000000D+00
     .250000000000D+02  .189687500000D+02  .485270213452D-08  .867178208402D+00
     .873580574989D-06  .460752437357D-02  .430643558502D-05  .515367310333D+04
     .504000000000D+05 -.409781932831D-07  .117100287361D+01 -.689178705215D-07
     .971639861957D+00  .302406250000D+03  .198630824080D+01 -.830498879326D-08
     .528593446610D-10  .100000000000D+01  .188900000000D+04  .000000000000D+00
     .240000000000D+01  .000000000000D+00 -.111758708954D-07  .250000000000D+02
     .432060000000D+05  .400000000000D+01
14 16  3 20 14  0  0.0 -.362331047654D-05 -.216004991671D-11  .000000000000D+00
     .560000000000D+02  .172812500000D+02  .486698844389D-08  .268706061385D+01
     .843778252602D-06  .840736832470D-02  .409409403801D-05  .515373331833D+04
     .504000000000D+05  .223517417908D-07  .113437560933D+01 -.150874257088D-06
     .964155725207D+00  .298437500000D+03 -.195334308911D+01 -.818855537191D-08
    -.217866217860D-10  .100000000000D+01  .188900000000D+04  .000000000000D+00
     .240000000000D+01  .000000000000D+00 -.931322574615D-08  .560000000000D+02
     .432060000000D+05  .400000000000D+01
15 16  3 20 14  0  0.0 -.302616506815D-03 -.181898940355D-11  .000000000000D+00
     .420000000000D+02  .365000000000D+02  .577488340422D-08  .188553776070D+01
     .195391476154D-05  .808663794305D-02  .456534326077D-05  .515355345345D+04
     .504000000000D+05 -.195577740669D-06  .100033960096D+01  .143423676491D-06
     .931067322668D+00  .279250000000D+03  .478023332482D+00 -.875607901155D-08
     .166435504135D-09  .100000000000D+01  .188900000000D+04  .000000000000D+00
     .240000000000D+01  .000000000000D+00 -.107102096081D-07  .420000000000D+02
     .432060000000D+05  .400000000000D+01
16 16  3 20 14  0  0.0 -.307727605104D-04  .295585778076D-11  .000000000000D+00
     .650000000000D+02  .775000000000D+02  .351514641996D-08 -.258698734149D+01
     .393949449062D-05  .868521188386D-02  .106934458017D-04  .515373134422D+04
     .504000000000D+05 -.130385160446D-07 -.306054257252D+01 -.242143869400D-07
     .991163592136D+00  .191593750000D+03  .343135964305D+00 -.751102715014D-08
     .296798077117D-09  .100000000000D+01  .188900000000D+04  .000000000000D+00
     .240000000000D+01  .000000000000D+00 -.102445483208D-07  .650000000000D+02
     .432060000000D+05  .400000000000D+01
17 16  3 20 14  0  0.0 -.202272087336D-03 -.454747350886D-12  .000000000000D+00
     .300000000000D+02  .248437500000D+02  .436339603867D-08  .275331090716D+01
     .124052166939D-05  .109882529359D-01  .269152224064D-05  .515365517998D+04
     .504000000000D+05  .465661287308D-07 -.203838911774D+01 -.819563865662D-07
     .975391209622D+00  .333343750000D+03 -.193534486503D+01 -.808605110220D-08
     .214651798252D-09  .100000000000D+01  .188900000000D+04  .000000000000D+00
     .240000000000D+01  .000000000000D+00 -.107102096081D-07  .300000000000D+02
     .432060000000D+05  .400000000000D+01
18 16  3 20 14  0  0.0  .495694577694D-03  .409272615798D-11  .000000000000D+00
     .580000000000D+02  .268750000000D+02  .516057210140D-08 -.196846692346D+01
     .140443444252D-05  .168426663149D-01  .106189399958D-04  .515367335701D+04
     .504000000000D+05  .264495611191D-06 -.192661541927D-01  .428408384323D-07
     .925516256610D+00  .150250000000D+03 -.190360848114D+01 -.804140638542D-08
     .418588864478D-09  .100000000000D+01  .188900000000D+04  .000000000000D+00
     .240000000000D+01  .000000000000D+00 -.111758708954D-07  .580000000000D+02
     .432060000000D+05  .400000000000D+01
19 16  3 20 14  0  0.0 -.525379553437D-03 -.113686837722D-12  .000000000000D+00
     .290000000000D+02  .184062500000D+02  .461912097636D-08 -.394965784025D+00
     .127218663692D-05  .107447440969D-01  .293552875519D-05  .515360200882D+04
     .504000000000D+05  .447034835815D-07 -.198941331807D+01  .171363353729D-06
     .972452180868D+00  .329625000000D+03  .726768399084D+00 -.851856911831D-08
     .223580741607D-09  .100000000000D+01  .188900000000D+04  .000000000000D+00
     .240000000000D+01  .000000000000D+00 -.153668224812D-07  .290000000000D+02
     .432060000000D+05  .400000000000D+01
20 16  3 20 14  0  0.0  .400548335165D-03  .250111042988D-11  .000000000000D+00
     .190000000000D+02  .487500000000D+01  .518343019639D-08  .199131149377D+01
     .217929482460D-06  .476409727708D-02  .112354755402D-04  .515371446228D+04
     .504000000000D+05  .111758708954D-07 -.711570522054D-01 -.135973095894D-06
     .926767257839D+00  .145187500000D+03  .134579158695D+01 -.819319842246D-08
     .280368821344D-09  .100000000000D+01  .188900000000D+04  .000000000000D+00
     .240000000000D+01  .000000000000D+00 -.838190317154D-08  .190000000000D+02
     .432060000000D+05  .400000000000D+01
21 16  3 20 14  0  0.0 -.515667255968D-03 -.159161572810D-11  .000000000000D+00
     .770000000000D+02 -.765000000000D+02  .520985986872D-08 -.110135891465D+01
    -.349059700966D-05  .233050162205D-01  .731833279133D-05  .515364939690D+04
     .504000000000D+05 -.111758708954D-06 -.106125452670D+01  .568106770515D-06
     .935777320550D+00  .226625000000D+03 -.181353367307D+01 -.865786063465D-08
    -.209651589973D-09  .100000000000D+01  .188900000000D+04  .000000000000D+00
     .240000000000D+01  .000000000000D+00 -.116415321827D-07  .770000000000D+02
     .432060000000D+05  .400000000000D+01
22 16  3 20 14  0  0.0  .378055498004D-03 -.682121026330D-11  .000000000000D+00
     .450000000000D+02  .216250000000D+02  .525343311229D-08  .274938049979D+01
     .102445483208D-05  .777320330963D-02  .116601586342D-04  .515507323456D+04
     .504000000000D+05  .521540641785D-07 -.185221989068D-01 -.707805156708D-07
     .923379081051D+00  .136468750000D+03 -.200726627291D+01 -.816784022333D-08
     .353943314588D-09  .100000000000D+01  .188900000000D+04  .000000000000D+00
     .240000000000D+01  .000000000000D+00 -.176951289177D-07  .450000000000D+02
     .432060000000D+05  .400000000000D+01
